0 COSMOS 1712 (GLONASS)
1 16398U 85118C   13282.66422316  .00000066  00000-0  00000+0 0  3777
2 16398 065.1980 118.2588 0009051 020.1199 319.7283 02.12919863216135
0 COSMOS 1712 (GLONASS)
1 16398U 85118C   13285.90091935  .00000084  00000-0  00000+0 0  3787
2 16398 065.1987 118.1513 0009076 020.2097 280.5920 02.12919968216201
0 COSMOS 1712 (GLONASS)
1 16398U 85118C   13289.77125705  .00000083  00000-0  00000+0 0  3799
2 16398 065.1994 118.0227 0009081 020.2134 007.2356 02.12920046216293
0 COSMOS 1712 (GLONASS)
1 16398U 85118C   13292.21501330  .00000055  00000-0  00000+0 0  3805
2 16398 065.2000 117.9416 0009091 020.3014 080.3094 02.12920057216348
0 COSMOS 1712 (GLONASS)
1 16398U 85118C   13294.28674248  .00000040  00000-0  00000+0 0  3818
2 16398 065.2005 117.8727 0009077 020.4364 228.1746 02.12920040216382
